[{"OBJECT_NAME":"STARLINK-37045","OBJECT_ID":"2026-042F","EPOCH":"2026-03-20T20:00:01.999872","MEAN_MOTION":15.7853482,"ECCENTRICITY":0.00010543,"INCLINATION":53.1587,"RA_OF_ASC_NODE":138.8918,"ARG_OF_PERICENTER":49.4291,"MEAN_ANOMALY":29.4472,"EPHEMERIS_TYPE":0,"CLASSIFICATION_TYPE":"U","NORAD_CAT_ID":68074,"ELEMENT_SET_NO":999,"REV_AT_EPOCH":384,"BSTAR":-0.012626106,"MEAN_MOTION_DOT":-0.01945736,"MEAN_MOTION_DDOT":0},{"OBJECT_NAME":"STARLINK-37026","OBJECT_ID":"2026-042G","EPOCH":"2026-03-20T20:00:01.999872","MEAN_MOTION":15.75299549,"ECCENTRICITY":0.00012408,"INCLINATION":53.1582,"RA_OF_ASC_NODE":138.9912,"ARG_OF_PERICENTER":87.8303,"MEAN_ANOMALY":302.3226,"EPHEMERIS_TYPE":0,"CLASSIFICATION_TYPE":"U","NORAD_CAT_ID":68075,"ELEMENT_SET_NO":999,"REV_AT_EPOCH":384,"BSTAR":-0.0010626552,"MEAN_MOTION_DOT":-0.001609,"MEAN_MOTION_DDOT":0},{"OBJECT_NAME":"STARLINK-37023","OBJECT_ID":"2026-042H","EPOCH":"2026-03-20T20:00:01.999872","MEAN_MOTION":15.75289254,"ECCENTRICITY":9.389e-5,"INCLINATION":53.1587,"RA_OF_ASC_NODE":138.9298,"ARG_OF_PERICENTER":80.366,"MEAN_ANOMALY":339.2382,"EPHEMERIS_TYPE":0,"CLASSIFICATION_TYPE":"U","NORAD_CAT_ID":68076,"ELEMENT_SET_NO":999,"REV_AT_EPOCH":384,"BSTAR":-0.00089029215,"MEAN_MOTION_DOT":-0.00135244,"MEAN_MOTION_DDOT":0},{"OBJECT_NAME":"STARLINK-37036","OBJECT_ID":"2026-042J","EPOCH":"2026-03-20T20:00:01.999872","MEAN_MOTION":15.75260093,"ECCENTRICITY":0.00015499,"INCLINATION":53.1586,"RA_OF_ASC_NODE":138.9337,"ARG_OF_PERICENTER":76.5981,"MEAN_ANOMALY":341.1497,"EPHEMERIS_TYPE":0,"CLASSIFICATION_TYPE":"U","NORAD_CAT_ID":68077,"ELEMENT_SET_NO":999,"REV_AT_EPOCH":384,"BSTAR":-0.00049519971,"MEAN_MOTION_DOT":-0.00075943,"MEAN_MOTION_DDOT":0},{"OBJECT_NAME":"STARLINK-36973","OBJECT_ID":"2026-042K","EPOCH":"2026-03-20T21:05:08.216448","MEAN_MOTION":15.81037827,"ECCENTRICITY":0.000176,"INCLINATION":53.1578,"RA_OF_ASC_NODE":138.6158,"ARG_OF_PERICENTER":80.367,"MEAN_ANOMALY":279.7552,"EPHEMERIS_TYPE":0,"CLASSIFICATION_TYPE":"U","NORAD_CAT_ID":68078,"ELEMENT_SET_NO":999,"REV_AT_EPOCH":385,"BSTAR":0.0019780229,"MEAN_MOTION_DOT":0.0041202,"MEAN_MOTION_DDOT":0},{"OBJECT_NAME":"STARLINK-37063","OBJECT_ID":"2026-042L","EPOCH":"2026-03-20T21:06:13.051872","MEAN_MOTION":15.81034642,"ECCENTRICITY":0.0001645,"INCLINATION":53.1576,"RA_OF_ASC_NODE":138.6208,"ARG_OF_PERICENTER":66.5671,"MEAN_ANOMALY":293.5525,"EPHEMERIS_TYPE":0,"CLASSIFICATION_TYPE":"U","NORAD_CAT_ID":68079,"ELEMENT_SET_NO":999,"REV_AT_EPOCH":385,"BSTAR":0.0020009553,"MEAN_MOTION_DOT":0.00416989,"MEAN_MOTION_DDOT":0},{"OBJECT_NAME":"STARLINK-37051","OBJECT_ID":"2026-042M","EPOCH":"2026-03-20T21:02:58.770240","MEAN_MOTION":15.81011343,"ECCENTRICITY":0.0001828,"INCLINATION":53.1576,"RA_OF_ASC_NODE":138.6055,"ARG_OF_PERICENTER":73.5475,"MEAN_ANOMALY":286.5748,"EPHEMERIS_TYPE":0,"CLASSIFICATION_TYPE":"U","NORAD_CAT_ID":68080,"ELEMENT_SET_NO":999,"REV_AT_EPOCH":385,"BSTAR":0.0017957619,"MEAN_MOTION_DOT":0.00371773,"MEAN_MOTION_DDOT":0},{"OBJECT_NAME":"STARLINK-37066","OBJECT_ID":"2026-042N","EPOCH":"2026-03-20T15:00:02.567808","MEAN_MOTION":15.80231891,"ECCENTRICITY":9.53e-5,"INCLINATION":53.1582,"RA_OF_ASC_NODE":139.879,"ARG_OF_PERICENTER":109.9073,"MEAN_ANOMALY":250.2053,"EPHEMERIS_TYPE":0,"CLASSIFICATION_TYPE":"U","NORAD_CAT_ID":68081,"ELEMENT_SET_NO":999,"REV_AT_EPOCH":381,"BSTAR":-0.0034155,"MEAN_MOTION_DOT":-0.00610839,"MEAN_MOTION_DDOT":0},{"OBJECT_NAME":"STARLINK-37054","OBJECT_ID":"2026-042P","EPOCH":"2026-03-20T21:01:54.076512","MEAN_MOTION":15.81015634,"ECCENTRICITY":0.0002256,"INCLINATION":53.1578,"RA_OF_ASC_NODE":138.6007,"ARG_OF_PERICENTER":67.7424,"MEAN_ANOMALY":292.3838,"EPHEMERIS_TYPE":0,"CLASSIFICATION_TYPE":"U","NORAD_CAT_ID":68082,"ELEMENT_SET_NO":999,"REV_AT_EPOCH":385,"BSTAR":0.001828587,"MEAN_MOTION_DOT":0.00378977,"MEAN_MOTION_DDOT":0},{"OBJECT_NAME":"STARLINK-37065","OBJECT_ID":"2026-042Q","EPOCH":"2026-03-20T20:00:01.999872","MEAN_MOTION":15.75288918,"ECCENTRICITY":0.00013035,"INCLINATION":53.1586,"RA_OF_ASC_NODE":138.8768,"ARG_OF_PERICENTER":93.9336,"MEAN_ANOMALY":351.4287,"EPHEMERIS_TYPE":0,"CLASSIFICATION_TYPE":"U","NORAD_CAT_ID":68083,"ELEMENT_SET_NO":999,"REV_AT_EPOCH":384,"BSTAR":-0.0010068145,"MEAN_MOTION_DOT":-0.00152558,"MEAN_MOTION_DDOT":0},{"OBJECT_NAME":"STARLINK-37037","OBJECT_ID":"2026-042R","EPOCH":"2026-03-20T20:59:44.275200","MEAN_MOTION":15.81038442,"ECCENTRICITY":0.00020296,"INCLINATION":53.1577,"RA_OF_ASC_NODE":138.5901,"ARG_OF_PERICENTER":68.941,"MEAN_ANOMALY":291.1829,"EPHEMERIS_TYPE":0,"CLASSIFICATION_TYPE":"U","NORAD_CAT_ID":68084,"ELEMENT_SET_NO":999,"REV_AT_EPOCH":385,"BSTAR":0.0020483589,"MEAN_MOTION_DOT":0.00427481,"MEAN_MOTION_DDOT":0},{"OBJECT_NAME":"STARLINK-37068","OBJECT_ID":"2026-042S","EPOCH":"2026-03-20T20:58:39.755136","MEAN_MOTION":15.81014647,"ECCENTRICITY":0.00023551,"INCLINATION":53.1577,"RA_OF_ASC_NODE":138.5853,"ARG_OF_PERICENTER":75.4537,"MEAN_ANOMALY":284.6747,"EPHEMERIS_TYPE":0,"CLASSIFICATION_TYPE":"U","NORAD_CAT_ID":68085,"ELEMENT_SET_NO":999,"REV_AT_EPOCH":385,"BSTAR":0.0018426416,"MEAN_MOTION_DOT":0.00382015,"MEAN_MOTION_DDOT":0},{"OBJECT_NAME":"STARLINK-37067","OBJECT_ID":"2026-042T","EPOCH":"2026-03-20T20:57:35.199648","MEAN_MOTION":15.81031238,"ECCENTRICITY":0.0002997,"INCLINATION":53.1576,"RA_OF_ASC_NODE":138.5809,"ARG_OF_PERICENTER":64.4439,"MEAN_ANOMALY":295.6893,"EPHEMERIS_TYPE":0,"CLASSIFICATION_TYPE":"U","NORAD_CAT_ID":68086,"ELEMENT_SET_NO":999,"REV_AT_EPOCH":385,"BSTAR":0.0022759707,"MEAN_MOTION_DOT":0.00477715,"MEAN_MOTION_DDOT":0},{"OBJECT_NAME":"STARLINK-37062","OBJECT_ID":"2026-042U","EPOCH":"2026-03-20T20:00:01.999872","MEAN_MOTION":15.80932955,"ECCENTRICITY":0.00010829,"INCLINATION":53.1578,"RA_OF_ASC_NODE":138.7719,"ARG_OF_PERICENTER":72.4044,"MEAN_ANOMALY":64.427,"EPHEMERIS_TYPE":0,"CLASSIFICATION_TYPE":"U","NORAD_CAT_ID":68087,"ELEMENT_SET_NO":999,"REV_AT_EPOCH":384,"BSTAR":-0.00076369693,"MEAN_MOTION_DOT":-0.00149266,"MEAN_MOTION_DDOT":0},{"OBJECT_NAME":"STARLINK-37059","OBJECT_ID":"2026-042V","EPOCH":"2026-03-20T20:00:01.999872","MEAN_MOTION":15.80918682,"ECCENTRICITY":0.00012841,"INCLINATION":53.1576,"RA_OF_ASC_NODE":138.7633,"ARG_OF_PERICENTER":70.084,"MEAN_ANOMALY":71.0266,"EPHEMERIS_TYPE":0,"CLASSIFICATION_TYPE":"U","NORAD_CAT_ID":68088,"ELEMENT_SET_NO":999,"REV_AT_EPOCH":384,"BSTAR":-0.00062331018,"MEAN_MOTION_DOT":-0.00122256,"MEAN_MOTION_DDOT":0},{"OBJECT_NAME":"STARLINK-37004","OBJECT_ID":"2026-042W","EPOCH":"2026-03-20T20:00:01.999872","MEAN_MOTION":15.80941025,"ECCENTRICITY":0.00011808,"INCLINATION":53.1577,"RA_OF_ASC_NODE":138.7545,"ARG_OF_PERICENTER":93.1475,"MEAN_ANOMALY":52.2321,"EPHEMERIS_TYPE":0,"CLASSIFICATION_TYPE":"U","NORAD_CAT_ID":68089,"ELEMENT_SET_NO":999,"REV_AT_EPOCH":384,"BSTAR":-0.00096223192,"MEAN_MOTION_DOT":-0.00187149,"MEAN_MOTION_DDOT":0}]
